start=new Date('2022-04-15T00:00:00.000Z').valueOf();
sats=[{"LAUNCH_DATE":"2020-02-17","FILE":"3401977","SITE":"AFETR","ARG_OF_PERICENTER":"65.8081","TLE_LINE2":"2 45201  53.0520 303.7839 0001433  65.8081 294.3057 15.06417677120334","MEAN_MOTION_DOT":"0.00009580","REF_FRAME":"TEME","CENTER_NAME":"EARTH","GP_ID":"201255086","RCS_SIZE":"LARGE","MEAN_ANOMALY":"294.3057","NORAD_CAT_ID":"45201","INCLINATION":"53.0520","MEAN_MOTION_DDOT":"0.0000000000000","OBJECT_NAME":"STARLINK-1199","RA_OF_ASC_NODE":"303.7839","MEAN_MOTION":"15.06417677","OBJECT_ID":"2020-012Z","CLASSIFICATION_TYPE":"U","SEMIMAJOR_AXIS":"6925.294","MEAN_ELEMENT_THEORY":"SGP4","APOAPSIS":"548.152","OBJECT_TYPE":"PAYLOAD","EPOCH":"2022-04-14T16:03:41.186016","DECAY_DATE":null,"PERIAPSIS":"546.167","TLE_LINE1":"1 45201U 20012Z   22104.66922669  .00009580  00000-0  66087-3 0  9994","COUNTRY_CODE":"US","BSTAR":"0.00066087000000","REV_AT_EPOCH":"12033","ELEMENT_SET_NO":"999","ECCENTRICITY":"0.00014330","PERIOD":"95.591","TIME_SYSTEM":"UTC","EPHEMERIS_TYPE":"0"},{"MEAN_ANOMALY":"232.4076","MEAN_MOTION_DDOT":"0.0000000000000","NORAD_CAT_ID":"45202","INCLINATION":"52.9812","RA_OF_ASC_NODE":"312.3122","OBJECT_NAME":"STARLINK-1203","MEAN_MOTION":"15.12449210","OBJECT_ID":"2020-012AA","LAUNCH_DATE":"2020-02-17","SITE":"AFETR","ARG_OF_PERICENTER":"127.7030","TLE_LINE2":"2 45202  52.9812 312.3122 0001270 127.7030 232.4076 15.12449210120215","FILE":"3401977","REF_FRAME":"TEME","MEAN_MOTION_DOT":"0.00021558","RCS_SIZE":"LARGE","GP_ID":"201254842","CENTER_NAME":"EARTH","PERIAPSIS":"527.858","DECAY_DATE":null,"TLE_LINE1":"1 45202U 20012AA  22104.86383730  .00021558  00000-0  12390-2 0  9993","COUNTRY_CODE":"US","BSTAR":"0.00123900000000","REV_AT_EPOCH":"12021","ELEMENT_SET_NO":"999","ECCENTRICITY":"0.00012700","EPHEMERIS_TYPE":"0","PERIOD":"95.210","TIME_SYSTEM":"UTC","CLASSIFICATION_TYPE":"U","APOAPSIS":"529.613","MEAN_ELEMENT_THEORY":"SGP4","SEMIMAJOR_AXIS":"6906.870","OBJECT_TYPE":"PAYLOAD","EPOCH":"2022-04-14T20:43:55.542720"},{"OBJECT_ID":"2020-012AC","RA_OF_ASC_NODE":"303.0776","OBJECT_NAME":"STARLINK-1206","MEAN_MOTION":"15.06415742","MEAN_MOTION_DDOT":"0.0000000000000","INCLINATION":"53.0535","NORAD_CAT_ID":"45204","MEAN_ANOMALY":"304.8175","RCS_SIZE":"LARGE","GP_ID":"201230781","CENTER_NAME":"EARTH","REF_FRAME":"TEME","MEAN_MOTION_DOT":"0.00010639","TLE_LINE2":"2 45204  53.0535 303.0776 0001889  55.2992 304.8175 15.06415742119422","ARG_OF_PERICENTER":"55.2992","SITE":"AFETR","FILE":"3401709","LAUNCH_DATE":"2020-02-17","EPHEMERIS_TYPE":"0","TIME_SYSTEM":"UTC","PERIOD":"95.591","ELEMENT_SET_NO":"999","ECCENTRICITY":"0.00018890","COUNTRY_CODE":"US","REV_AT_EPOCH":"11942","BSTAR":"0.00073174000000","TLE_LINE1":"1 45204U 20012AC  22104.82772741  .00010639  00000-0  73174-3 0  9991","PERIAPSIS":"545.857","DECAY_DATE":null,"EPOCH":"2022-04-14T19:51:55.648224","OBJECT_TYPE":"PAYLOAD","MEAN_ELEMENT_THEORY":"SGP4","APOAPSIS":"548.474","SEMIMAJOR_AXIS":"6925.300","CLASSIFICATION_TYPE":"U"},{"MEAN_ANOMALY":"288.2621","INCLINATION":"53.0555","NORAD_CAT_ID":"45205","MEAN_MOTION_DDOT":"0.0000000000000","OBJECT_NAME":"STARLINK-1208","RA_OF_ASC_NODE":"302.9619","MEAN_MOTION":"15.06396552","OBJECT_ID":"2020-012AD","LAUNCH_DATE":"2020-02-17","FILE":"3401709","TLE_LINE2":"2 45205  53.0555 302.9619 0001423  71.8523 288.2621 15.06396552119436","ARG_OF_PERICENTER":"71.8523","SITE":"AFETR","MEAN_MOTION_DOT":"0.00002204","REF_FRAME":"TEME","GP_ID":"201230280","CENTER_NAME":"EARTH","RCS_SIZE":"LARGE","DECAY_DATE":null,"PERIAPSIS":"546.239","COUNTRY_CODE":"US","REV_AT_EPOCH":"11943","BSTAR":"0.00016680000000","TLE_LINE1":"1 45205U 20012AD  22104.84983270  .00002204  00000-0  16680-3 0  9993","ELEMENT_SET_NO":"999","ECCENTRICITY":"0.00014230","TIME_SYSTEM":"UTC","PERIOD":"95.592","EPHEMERIS_TYPE":"0","CLASSIFICATION_TYPE":"U","SEMIMAJOR_AXIS":"6925.359","APOAPSIS":"548.210","MEAN_ELEMENT_THEORY":"SGP4","EPOCH":"2022-04-14T20:23:45.545280","OBJECT_TYPE":"PAYLOAD"},{"MEAN_ANOMALY":"297.2294","NORAD_CAT_ID":"45206","INCLINATION":"53.0539","MEAN_MOTION_DDOT":"0.0000000000000","MEAN_MOTION":"15.06402169","OBJECT_NAME":"STARLINK-1209","RA_OF_ASC_NODE":"283.7433","OBJECT_ID":"2020-012AE","LAUNCH_DATE":"2020-02-17","FILE":"3401977","SITE":"AFETR","TLE_LINE2":"2 45206  53.0539 283.7433 0001666  62.8865 297.2294 15.06402169119660","ARG_OF_PERICENTER":"62.8865","MEAN_MOTION_DOT":"0.00004104","REF_FRAME":"TEME","GP_ID":"201254592","CENTER_NAME":"EARTH","RCS_SIZE":"LARGE","DECAY_DATE":null,"PERIAPSIS":"546.053","TLE_LINE1":"1 45206U 20012AE  22104.67843348  .00004104  00000-0  29421-3 0  9994","COUNTRY_CODE":"US","BSTAR":"0.00029421000000","REV_AT_EPOCH":"11966","ELEMENT_SET_NO":"999","ECCENTRICITY":"0.00016660","PERIOD":"95.592","TIME_SYSTEM":"UTC","EPHEMERIS_TYPE":"0","CLASSIFICATION_TYPE":"U","SEMIMAJOR_AXIS":"6925.342","MEAN_ELEMENT_THEORY":"SGP4","APOAPSIS":"548.361","OBJECT_TYPE":"PAYLOAD","EPOCH":"2022-04-14T16:16:56.652672"},{"MEAN_ELEMENT_THEORY":"SGP4","APOAPSIS":"548.256","SEMIMAJOR_AXIS":"6925.337","CLASSIFICATION_TYPE":"U","EPOCH":"2022-04-14T19:20:04.010208","OBJECT_TYPE":"PAYLOAD","COUNTRY_CODE":"US","REV_AT_EPOCH":"12035","BSTAR":"0.00028404000000","TLE_LINE1":"1 45207U 20012AF  22104.80560197  .00003952  00000-0  28404-3 0  9998","PERIAPSIS":"546.148","DECAY_DATE":null,"EPHEMERIS_TYPE":"0","TIME_SYSTEM":"UTC","PERIOD":"95.592","ECCENTRICITY":"0.00015220","ELEMENT_SET_NO":"999","ARG_OF_PERICENTER":"66.6085","TLE_LINE2":"2 45207  53.0549 303.1630 0001522  66.6085 293.5063 15.06403771120356","SITE":"AFETR","FILE":"3401977","LAUNCH_DATE":"2020-02-17","RCS_SIZE":"LARGE","GP_ID":"201255337","CENTER_NAME":"EARTH","REF_FRAME":"TEME","MEAN_MOTION_DOT":"0.00003952","MEAN_MOTION_DDOT":"0.0000000000000","INCLINATION":"53.0549","NORAD_CAT_ID":"45207","MEAN_ANOMALY":"293.5063","OBJECT_ID":"2020-012AF","OBJECT_NAME":"STARLINK-1210","RA_OF_ASC_NODE":"303.1630","MEAN_MOTION":"15.06403771"},{"OBJECT_ID":"2020-012AG","OBJECT_NAME":"STARLINK-1211","RA_OF_ASC_NODE":"305.5904","MEAN_MOTION":"15.05606824","INCLINATION":"53.0010","NORAD_CAT_ID":"45208","MEAN_MOTION_DDOT":"0.0000000000000","MEAN_ANOMALY":"290.6310","CENTER_NAME":"EARTH","GP_ID":"201230295","RCS_SIZE":"LARGE","MEAN_MOTION_DOT":"0.00005989","REF_FRAME":"TEME","FILE":"3401710","ARG_OF_PERICENTER":"69.4839","TLE_LINE2":"2 45208  53.0010 305.5904 0001500  69.4839 290.6310 15.05606824119291","SITE":"AFETR","LAUNCH_DATE":"2020-02-17","TIME_SYSTEM":"UTC","PERIOD":"95.642","EPHEMERIS_TYPE":"0","ELEMENT_SET_NO":"999","ECCENTRICITY":"0.00015000","REV_AT_EPOCH":"11929","COUNTRY_CODE":"US","BSTAR":"0.00042954000000","TLE_LINE1":"1 45208U 20012AG  22104.26579950  .00005989  00000-0  42954-3 0  9994","DECAY_DATE":null,"PERIAPSIS":"548.606","EPOCH":"2022-04-14T06:22:45.076800","OBJECT_TYPE":"PAYLOAD","SEMIMAJOR_AXIS":"6927.781","MEAN_ELEMENT_THEORY":"SGP4","APOAPSIS":"550.685","CLASSIFICATION_TYPE":"U"},{"PERIOD":"91.327","TIME_SYSTEM":"UTC","EPHEMERIS_TYPE":"0","ECCENTRICITY":"0.00085210","ELEMENT_SET_NO":"999","TLE_LINE1":"1 45209U 20012AH  22104.87279635  .00010879  00000-0  70246-4 0  9999","COUNTRY_CODE":"US","BSTAR":"0.00007024600000","REV_AT_EPOCH":"12139","DECAY_DATE":null,"PERIAPSIS":"333.949","OBJECT_TYPE":"PAYLOAD","EPOCH":"2022-04-14T20:56:49.604640","SEMIMAJOR_AXIS":"6717.809","MEAN_ELEMENT_THEORY":"SGP4","APOAPSIS":"345.398","CLASSIFICATION_TYPE":"U","OBJECT_ID":"2020-012AH","OBJECT_NAME":"STARLINK-1218","MEAN_MOTION":"15.76744466","RA_OF_ASC_NODE":"161.7744","NORAD_CAT_ID":"45209","INCLINATION":"53.0468","MEAN_MOTION_DDOT":"0.0000000000000","MEAN_ANOMALY":"77.6459","GP_ID":"201230301","CENTER_NAME":"EARTH","RCS_SIZE":"LARGE","MEAN_MOTION_DOT":"0.00010879","REF_FRAME":"TEME","FILE":"3401718","SITE":"AFETR","TLE_LINE2":"2 45209  53.0468 161.7744 0008521 282.3606  77.6459 15.76744466121395","ARG_OF_PERICENTER":"282.3606","LAUNCH_DATE":"2020-02-17"},{"MEAN_ANOMALY":"300.5245","MEAN_MOTION_DDOT":"0.0000000000000","INCLINATION":"53.0540","NORAD_CAT_ID":"45210","RA_OF_ASC_NODE":"303.1677","OBJECT_NAME":"STARLINK-1219","MEAN_MOTION":"15.06412819","OBJECT_ID":"2020-012AJ","LAUNCH_DATE":"2020-02-17","TLE_LINE2":"2 45210  53.0540 303.1677 0001475  59.5890 300.5245 15.06412819120246","ARG_OF_PERICENTER":"59.5890","SITE":"AFETR","FILE":"3401977","REF_FRAME":"TEME","MEAN_MOTION_DOT":"0.00009983","RCS_SIZE":"LARGE","CENTER_NAME":"EARTH","GP_ID":"201255087","PERIAPSIS":"546.153","DECAY_DATE":null,"BSTAR":"0.00068789000000","COUNTRY_CODE":"US","REV_AT_EPOCH":"12024","TLE_LINE1":"1 45210U 20012AJ  22104.80929991  .00009983  00000-0  68789-3 0  9993","ECCENTRICITY":"0.00014750","ELEMENT_SET_NO":"999","EPHEMERIS_TYPE":"0","TIME_SYSTEM":"UTC","PERIOD":"95.591","CLASSIFICATION_TYPE":"U","APOAPSIS":"548.196","MEAN_ELEMENT_THEORY":"SGP4","SEMIMAJOR_AXIS":"6925.309","EPOCH":"2022-04-14T19:25:23.512224","OBJECT_TYPE":"PAYLOAD"},{"EPOCH":"2022-04-14T20:13:08.209632","OBJECT_TYPE":"PAYLOAD","CLASSIFICATION_TYPE":"U","SEMIMAJOR_AXIS":"6925.318","MEAN_ELEMENT_THEORY":"SGP4","APOAPSIS":"548.287","ELEMENT_SET_NO":"999","ECCENTRICITY":"0.00015940","TIME_SYSTEM":"UTC","PERIOD":"95.592","EPHEMERIS_TYPE":"0","DECAY_DATE":null,"PERIAPSIS":"546.079","BSTAR":"0.00029893000000","COUNTRY_CODE":"US","REV_AT_EPOCH":"12031","TLE_LINE1":"1 45212U 20012AL  22104.84245613  .00004175  00000-0  29893-3 0  9992","MEAN_MOTION_DOT":"0.00004175","REF_FRAME":"TEME","GP_ID":"201254843","CENTER_NAME":"EARTH","RCS_SIZE":"LARGE","LAUNCH_DATE":"2020-02-17","FILE":"3401977","ARG_OF_PERICENTER":"61.1156","TLE_LINE2":"2 45212  53.0550 303.0047 0001594  61.1156 298.9992 15.06409945120318","SITE":"AFETR","RA_OF_ASC_NODE":"303.0047","OBJECT_NAME":"STARLINK-1231","MEAN_MOTION":"15.06409945","OBJECT_ID":"2020-012AL","MEAN_ANOMALY":"298.9992","INCLINATION":"53.0550","NORAD_CAT_ID":"45212","MEAN_MOTION_DDOT":"0.0000000000000"}];
